{"type": "FeatureCollection", "features": [ {"type": "Feature", "properties": {"norad_id": 66459, "name": "STARLINK-35449", "group": "last-30-days", "lat": -14.180675566410393, "lon": -71.09406878842601, "alt_km": 442.3683846682716, "timestamp": "2025-12-08T23:34:02.738846+00:00", "meta": {"OBJECT_NAME": "STARLINK-35449", "OBJECT_ID": "2025-262D", "EPOCH": "2025-12-08T14:00:01.999872", "MEAN_MOTION": 15.43304935, "ECCENTRICITY": 0.00013236, "INCLINATION": 43.0005, "RA_OF_ASC_NODE": 95.4768, "ARG_OF_PERICENTER": 284.1194, "MEAN_ANOMALY": 220.7127, "EPHEMERIS_TYPE": 0, "CLASSIFICATION_TYPE": "U", "NORAD_CAT_ID": 66459, "ELEMENT_SET_NO": 999, "REV_AT_EPOCH": 497, "BSTAR": -0.045385366, "MEAN_MOTION_DOT": -0.01859424, "MEAN_MOTION_DDOT": 0}, "tle": {"line1": "1 66459U 25262D   25342.58335648 -.01859424  00000+0 -45385-1 0  9995", "line2": "2 66459  43.0005  95.4768 0001323 284.1194 220.7127 15.43304935  4979"}}, "geometry": {"type": "Point", "coordinates": [-71.09406878842601, -14.180675566410393]}}, {"type": "Feature", "properties": {"norad_id": 66460, "name": "STARLINK-35424", "group": "last-30-days", "lat": -21.057923010203577, "lon": -62.44846844564829, "alt_km": 439.27089323420296, "timestamp": "2025-12-08T23:34:02.738856+00:00", "meta": {"OBJECT_NAME": "STARLINK-35424", "OBJECT_ID": "2025-262E", "EPOCH": "2025-12-08T14:00:01.999872", "MEAN_MOTION": 15.44699781, "ECCENTRICITY": 0.00010754, "INCLINATION": 43.0002, "RA_OF_ASC_NODE": 95.4552, "ARG_OF_PERICENTER": 284.8133, "MEAN_ANOMALY": 228.8972, "EPHEMERIS_TYPE": 0, "CLASSIFICATION_TYPE": "U", "NORAD_CAT_ID": 66460, "ELEMENT_SET_NO": 999, "REV_AT_EPOCH": 497, "BSTAR": -0.048443891, "MEAN_MOTION_DOT": -0.02057074, "MEAN_MOTION_DDOT": 0}, "tle": {"line1": "1 66460U 25262E   25342.58335648 -.02057074  00000+0 -48444-1 0  9998", "line2": "2 66460  43.0002  95.4552 0001075 284.8133 228.8972 15.44699781  4977"}}, "geometry": {"type": "Point", "coordinates": [-62.44846844564829, -21.057923010203577]}}, {"type": "Feature", "properties": {"norad_id": 66461, "name": "STARLINK-35132", "group": "last-30-days", "lat": -26.671050615676748, "lon": -54.25769444102469, "alt_km": 435.6575704903107, "timestamp": "2025-12-08T23:34:02.738868+00:00", "meta": {"OBJECT_NAME": "STARLINK-35132", "OBJECT_ID": "2025-262F", "EPOCH": "2025-12-08T14:00:01.999872", "MEAN_MOTION": 15.46033015, "ECCENTRICITY": 0.00012746, "INCLINATION": 43.0003, "RA_OF_ASC_NODE": 95.4367, "ARG_OF_PERICENTER": 288.5842, "MEAN_ANOMALY": 232.5906, "EPHEMERIS_TYPE": 0, "CLASSIFICATION_TYPE": "U", "NORAD_CAT_ID": 66461, "ELEMENT_SET_NO": 999, "REV_AT_EPOCH": 497, "BSTAR": -0.046303154, "MEAN_MOTION_DOT": -0.02058946, "MEAN_MOTION_DDOT": 0}, "tle": {"line1": "1 66461U 25262F   25342.58335648 -.02058946  00000+0 -46303-1 0  9990", "line2": "2 66461  43.0003  95.4367 0001274 288.5842 232.5906 15.46033015  4975"}}, "geometry": {"type": "Point", "coordinates": [-54.25769444102469, -26.671050615676748]}}, {"type": "Feature", "properties": {"norad_id": 66462, "name": "STARLINK-35499", "group": "last-30-days", "lat": -31.036719914492547, "lon": -46.67604307601344, "alt_km": 431.87183370706134, "timestamp": "2025-12-08T23:34:02.738878+00:00", "meta": {"OBJECT_NAME": "STARLINK-35499", "OBJECT_ID": "2025-262G", "EPOCH": "2025-12-08T14:00:01.999872", "MEAN_MOTION": 15.47375194, "ECCENTRICITY": 0.00010618, "INCLINATION": 43.0002, "RA_OF_ASC_NODE": 95.4208, "ARG_OF_PERICENTER": 282.1645, "MEAN_ANOMALY": 245.0557, "EPHEMERIS_TYPE": 0, "CLASSIFICATION_TYPE": "U", "NORAD_CAT_ID": 66462, "ELEMENT_SET_NO": 999, "REV_AT_EPOCH": 497, "BSTAR": -0.044701661, "MEAN_MOTION_DOT": -0.02080363, "MEAN_MOTION_DDOT": 0}, "tle": {"line1": "1 66462U 25262G   25342.58335648 -.02080363  00000+0 -44702-1 0  9990", "line2": "2 66462  43.0002  95.4208 0001061 282.1645 245.0557 15.47375194  4973"}}, "geometry": {"type": "Point", "coordinates": [-46.67604307601344, -31.036719914492547]}}, {"type": "Feature", "properties": {"norad_id": 66463, "name": "STARLINK-35463", "group": "last-30-days", "lat": -36.516097316691884, "lon": -34.31467565961812, "alt_km": 424.11235393237166, "timestamp": "2025-12-08T23:34:02.738893+00:00", "meta": {"OBJECT_NAME": "STARLINK-35463", "OBJECT_ID": "2025-262H", "EPOCH": "2025-12-08T14:00:01.999872", "MEAN_MOTION": 15.50052716, "ECCENTRICITY": 0.00012032, "INCLINATION": 43.0003, "RA_OF_ASC_NODE": 95.4009, "ARG_OF_PERICENTER": 283.38, "MEAN_ANOMALY": 251.6513, "EPHEMERIS_TYPE": 0, "CLASSIFICATION_TYPE": "U", "NORAD_CAT_ID": 66463, "ELEMENT_SET_NO": 999, "REV_AT_EPOCH": 497, "BSTAR": -0.040629089, "MEAN_MOTION_DOT": -0.02079408, "MEAN_MOTION_DDOT": 0}, "tle": {"line1": "1 66463U 25262H   25342.58335648 -.02079408  00000+0 -40629-1 0  9993", "line2": "2 66463  43.0003  95.4009 0001203 283.3800 251.6513 15.50052716  4979"}}, "geometry": {"type": "Point", "coordinates": [-34.31467565961812, -36.516097316691884]}}, {"type": "Feature", "properties": {"norad_id": 66464, "name": "STARLINK-35435", "group": "last-30-days", "lat": -34.264547962642304, "lon": -39.937416718335975, "alt_km": 428.22186147933826, "timestamp": "2025-12-08T23:34:02.738905+00:00", "meta": {"OBJECT_NAME": "STARLINK-35435", "OBJECT_ID": "2025-262J", "EPOCH": "2025-12-08T14:00:01.999872", "MEAN_MOTION": 15.48721047, "ECCENTRICITY": 8.507e-05, "INCLINATION": 43.0001, "RA_OF_ASC_NODE": 95.409, "ARG_OF_PERICENTER": 277.4901, "MEAN_ANOMALY": 254.3512, "EPHEMERIS_TYPE": 0, "CLASSIFICATION_TYPE": "U", "NORAD_CAT_ID": 66464, "ELEMENT_SET_NO": 999, "REV_AT_EPOCH": 497, "BSTAR": -0.043142891, "MEAN_MOTION_DOT": -0.02102535, "MEAN_MOTION_DDOT": 0}, "tle": {"line1": "1 66464U 25262J   25342.58335648 -.02102535  00000+0 -43143-1 0  9996", "line2": "2 66464  43.0001  95.4090 0000850 277.4901 254.3512 15.48721047  4977"}}, "geometry": {"type": "Point", "coordinates": [-39.937416718335975, -34.264547962642304]}}, {"type": "Feature", "properties": {"norad_id": 66465, "name": "STARLINK-35448", "group": "last-30-days", "lat": -38.80504008898755, "lon": -27.287549003989255, "alt_km": 417.4432784898254, "timestamp": "2025-12-08T23:34:02.738916+00:00", "meta": {"OBJECT_NAME": "STARLINK-35448", "OBJECT_ID": "2025-262K", "EPOCH": "2025-12-08T14:00:01.999872", "MEAN_MOTION": 15.50599539, "ECCENTRICITY": 0.00013111, "INCLINATION": 43, "RA_OF_ASC_NODE": 95.3919, "ARG_OF_PERICENTER": 266.1239, "MEAN_ANOMALY": 272.8615, "EPHEMERIS_TYPE": 0, "CLASSIFICATION_TYPE": "U", "NORAD_CAT_ID": 66465, "ELEMENT_SET_NO": 999, "REV_AT_EPOCH": 497, "BSTAR": -0.00081597675, "MEAN_MOTION_DOT": -0.00047953, "MEAN_MOTION_DDOT": 0}, "tle": {"line1": "1 66465U 25262K   25342.58335648 -.00047953  00000+0 -81598-3 0  9995", "line2": "2 66465  43.0000  95.3919 0001311 266.1239 272.8615 15.50599539  4979"}}, "geometry": {"type": "Point", "coordinates": [-27.287549003989255, -38.80504008898755]}}, {"type": "Feature", "properties": {"norad_id": 66466, "name": "STARLINK-35388", "group": "last-30-days", "lat": -39.43751031414656, "lon": -24.982139410831685, "alt_km": 417.43831487230545, "timestamp": "2025-12-08T23:34:02.738927+00:00", "meta": {"OBJECT_NAME": "STARLINK-35388", "OBJECT_ID": "2025-262L", "EPOCH": "2025-12-08T14:00:01.999872", "MEAN_MOTION": 15.50611507, "ECCENTRICITY": 0.00014847, "INCLINATION": 43.0002, "RA_OF_ASC_NODE": 95.3857, "ARG_OF_PERICENTER": 268.7367, "MEAN_ANOMALY": 272.1642, "EPHEMERIS_TYPE": 0, "CLASSIFICATION_TYPE": "U", "NORAD_CAT_ID": 66466, "ELEMENT_SET_NO": 999, "REV_AT_EPOCH": 497, "BSTAR": -0.0016309292, "MEAN_MOTION_DOT": -0.00094979, "MEAN_MOTION_DDOT": 0}, "tle": {"line1": "1 66466U 25262L   25342.58335648 -.00094979  00000+0 -16309-2 0  9993", "line2": "2 66466  43.0002  95.3857 0001484 268.7367 272.1642 15.50611507  4977"}}, "geometry": {"type": "Point", "coordinates": [-24.982139410831685, -39.43751031414656]}}, {"type": "Feature", "properties": {"norad_id": 66467, "name": "STARLINK-35682", "group": "last-30-days", "lat": -37.965165358020414, "lon": -30.071877806631424, "alt_km": 420.1234716498866, "timestamp": "2025-12-08T23:34:02.738937+00:00", "meta": {"OBJECT_NAME": "STARLINK-35682", "OBJECT_ID": "2025-262M", "EPOCH": "2025-12-08T14:00:01.999872", "MEAN_MOTION": 15.51007708, "ECCENTRICITY": 0.00010823, "INCLINATION": 43.0003, "RA_OF_ASC_NODE": 95.3963, "ARG_OF_PERICENTER": 280.4574, "MEAN_ANOMALY": 256.5542, "EPHEMERIS_TYPE": 0, "CLASSIFICATION_TYPE": "U", "NORAD_CAT_ID": 66467, "ELEMENT_SET_NO": 999, "REV_AT_EPOCH": 497, "BSTAR": -0.029271518, "MEAN_MOTION_DOT": -0.01571634, "MEAN_MOTION_DDOT": 0}, "tle": {"line1": "1 66467U 25262M   25342.58335648 -.01571634  00000+0 -29272-1 0  9995", "line2": "2 66467  43.0003  95.3963 0001082 280.4574 256.5542 15.51007708  4970"}}, "geometry": {"type": "Point", "coordinates": [-30.071877806631424, -37.965165358020414]}}, {"type": "Feature", "properties": {"norad_id": 66468, "name": "STARLINK-35331", "group": "last-30-days", "lat": -40.027505000514715, "lon": -22.616301695655636, "alt_km": 417.4426523953907, "timestamp": "2025-12-08T23:34:02.738949+00:00", "meta": {"OBJECT_NAME": "STARLINK-35331", "OBJECT_ID": "2025-262N", "EPOCH": "2025-12-08T14:00:01.999872", "MEAN_MOTION": 15.5060722, "ECCENTRICITY": 0.00015344, "INCLINATION": 43.0004, "RA_OF_ASC_NODE": 95.3819, "ARG_OF_PERICENTER": 273.0995, "MEAN_ANOMALY": 269.7211, "EPHEMERIS_TYPE": 0, "CLASSIFICATION_TYPE": "U", "NORAD_CAT_ID": 66468, "ELEMENT_SET_NO": 999, "REV_AT_EPOCH": 497, "BSTAR": -0.0014627709, "MEAN_MOTION_DOT": -0.00085313, "MEAN_MOTION_DDOT": 0}, "tle": {"line1": "1 66468U 25262N   25342.58335648 -.00085313  00000+0 -14628-2 0  9999", "line2": "2 66468  43.0004  95.3819 0001534 273.0995 269.7211 15.50607220  4972"}}, "geometry": {"type": "Point", "coordinates": [-22.616301695655636, -40.027505000514715]}}]}